start=new Date('2022-04-13T00:00:00.000Z').valueOf();
sats=[{"MEAN_MOTION_DDOT":"0.0000000000000","EPHEMERIS_TYPE":"0","SITE":"AFETR","MEAN_ELEMENT_THEORY":"SGP4","REV_AT_EPOCH":"10993","SEMIMAJOR_AXIS":"6925.435","APOAPSIS":"548.386","CLASSIFICATION_TYPE":"U","TIME_SYSTEM":"UTC","ECCENTRICITY":"0.00015690","CENTER_NAME":"EARTH","TLE_LINE1":"1 45541U 20025L   22102.22177731 -.00003065  00000-0 -18710-3 0  9991","DECAY_DATE":null,"PERIAPSIS":"546.213","OBJECT_ID":"2020-025L","FILE":"3398537","OBJECT_TYPE":"PAYLOAD","PERIOD":"95.594","NORAD_CAT_ID":"45541","ELEMENT_SET_NO":"999","REF_FRAME":"TEME","MEAN_MOTION_DOT":"-0.00003065","RA_OF_ASC_NODE":"34.7600","MEAN_ANOMALY":"298.4655","INCLINATION":"53.0560","BSTAR":"-0.00018710000000","COUNTRY_CODE":"US","LAUNCH_DATE":"2020-04-22","OBJECT_NAME":"STARLINK-1369","TLE_LINE2":"2 45541  53.0560  34.7600 0001569  61.6492 298.4655 15.06371832109936","RCS_SIZE":"LARGE","GP_ID":"201056920","ARG_OF_PERICENTER":"61.6492","MEAN_MOTION":"15.06371832","EPOCH":"2022-04-12T05:19:21.559584"},{"MEAN_MOTION_DDOT":"0.0000000000000","APOAPSIS":"548.402","SEMIMAJOR_AXIS":"6925.424","REV_AT_EPOCH":"11003","MEAN_ELEMENT_THEORY":"SGP4","SITE":"AFETR","EPHEMERIS_TYPE":"0","CLASSIFICATION_TYPE":"U","CENTER_NAME":"EARTH","ECCENTRICITY":"0.00016080","TIME_SYSTEM":"UTC","TLE_LINE1":"1 45542U 20025M   22102.85206920 -.00003045  00000-0 -18570-3 0  9996","PERIAPSIS":"546.175","DECAY_DATE":null,"OBJECT_ID":"2020-025M","FILE":"3398892","PERIOD":"95.594","OBJECT_TYPE":"PAYLOAD","REF_FRAME":"TEME","NORAD_CAT_ID":"45542","ELEMENT_SET_NO":"999","RA_OF_ASC_NODE":"31.9471","MEAN_MOTION_DOT":"-0.00003045","BSTAR":"-0.00018570000000","INCLINATION":"53.0566","MEAN_ANOMALY":"299.9801","COUNTRY_CODE":"US","TLE_LINE2":"2 45542  53.0566  31.9471 0001608  60.1347 299.9801 15.06375446110032","LAUNCH_DATE":"2020-04-22","OBJECT_NAME":"STARLINK-1371","GP_ID":"201091600","RCS_SIZE":"LARGE","MEAN_MOTION":"15.06375446","ARG_OF_PERICENTER":"60.1347","EPOCH":"2022-04-12T20:26:58.778880"},{"RA_OF_ASC_NODE":"34.7537","MEAN_MOTION_DOT":"-0.00000131","REF_FRAME":"TEME","ELEMENT_SET_NO":"999","NORAD_CAT_ID":"45543","COUNTRY_CODE":"US","BSTAR":"0.00001013600000","MEAN_ANOMALY":"306.5009","INCLINATION":"53.0571","GP_ID":"201058416","RCS_SIZE":"LARGE","TLE_LINE2":"2 45543  53.0571  34.7537 0001700  53.6137 306.5009 15.06383224109036","LAUNCH_DATE":"2020-04-22","OBJECT_NAME":"STARLINK-1372","EPOCH":"2022-04-12T05:24:38.543904","MEAN_MOTION":"15.06383224","ARG_OF_PERICENTER":"53.6137","SEMIMAJOR_AXIS":"6925.400","REV_AT_EPOCH":"10903","APOAPSIS":"548.442","EPHEMERIS_TYPE":"0","SITE":"AFETR","MEAN_ELEMENT_THEORY":"SGP4","MEAN_MOTION_DDOT":"0.0000000000000","ECCENTRICITY":"0.00017000","CENTER_NAME":"EARTH","TIME_SYSTEM":"UTC","CLASSIFICATION_TYPE":"U","DECAY_DATE":null,"TLE_LINE1":"1 45543U 20025N   22102.22544611 -.00000131  00000-0  10136-4 0  9993","OBJECT_ID":"2020-025N","PERIAPSIS":"546.088","PERIOD":"95.593","OBJECT_TYPE":"PAYLOAD","FILE":"3398537"},{"GP_ID":"201090098","RCS_SIZE":"LARGE","TLE_LINE2":"2 45544  53.0564  31.9972 0001446  81.1601 278.9552 15.06378604110033","LAUNCH_DATE":"2020-04-22","OBJECT_NAME":"STARLINK-1373","EPOCH":"2022-04-12T20:11:03.159456","MEAN_MOTION":"15.06378604","ARG_OF_PERICENTER":"81.1601","RA_OF_ASC_NODE":"31.9972","MEAN_MOTION_DOT":"0.00000516","REF_FRAME":"TEME","ELEMENT_SET_NO":"999","NORAD_CAT_ID":"45544","COUNTRY_CODE":"US","BSTAR":"0.00005359100000","MEAN_ANOMALY":"278.9552","INCLINATION":"53.0564","DECAY_DATE":null,"TLE_LINE1":"1 45544U 20025P   22102.84100879  .00000516  00000-0  53591-4 0  9994","OBJECT_ID":"2020-025P","PERIAPSIS":"546.278","PERIOD":"95.593","OBJECT_TYPE":"PAYLOAD","FILE":"3398892","REV_AT_EPOCH":"11003","SEMIMAJOR_AXIS":"6925.414","APOAPSIS":"548.281","SITE":"AFETR","EPHEMERIS_TYPE":"0","MEAN_ELEMENT_THEORY":"SGP4","MEAN_MOTION_DDOT":"0.0000000000000","ECCENTRICITY":"0.00014460","CENTER_NAME":"EARTH","TIME_SYSTEM":"UTC","CLASSIFICATION_TYPE":"U"},{"COUNTRY_CODE":"US","BSTAR":"-0.00018516000000","INCLINATION":"53.0554","MEAN_ANOMALY":"295.8276","RA_OF_ASC_NODE":"34.8805","MEAN_MOTION_DOT":"-0.00003036","REF_FRAME":"TEME","NORAD_CAT_ID":"45545","ELEMENT_SET_NO":"999","EPOCH":"2022-04-12T04:42:12.081888","MEAN_MOTION":"15.06368297","ARG_OF_PERICENTER":"64.2884","GP_ID":"201057420","RCS_SIZE":"LARGE","TLE_LINE2":"2 45545  53.0554  34.8805 0001662  64.2884 295.8276 15.06368297109918","LAUNCH_DATE":"2020-04-22","OBJECT_NAME":"STARLINK-1374","CENTER_NAME":"EARTH","ECCENTRICITY":"0.00016620","TIME_SYSTEM":"UTC","CLASSIFICATION_TYPE":"U","APOAPSIS":"548.462","SEMIMAJOR_AXIS":"6925.446","REV_AT_EPOCH":"10991","EPHEMERIS_TYPE":"0","SITE":"AFETR","MEAN_ELEMENT_THEORY":"SGP4","MEAN_MOTION_DDOT":"0.0000000000000","PERIOD":"95.594","OBJECT_TYPE":"PAYLOAD","FILE":"3398537","DECAY_DATE":null,"TLE_LINE1":"1 45545U 20025Q   22102.19597317 -.00003036  00000-0 -18516-3 0  9999","OBJECT_ID":"2020-025Q","PERIAPSIS":"546.160"},{"MEAN_MOTION":"15.06378562","ARG_OF_PERICENTER":"76.9827","EPOCH":"2022-04-12T04:58:07.129344","TLE_LINE2":"2 45546  53.0574  34.8307 0001472  76.9827 283.1326 15.06378562109938","OBJECT_NAME":"STARLINK-1375","LAUNCH_DATE":"2020-04-22","GP_ID":"201057672","RCS_SIZE":"LARGE","BSTAR":"-0.00008939300000","INCLINATION":"53.0574","MEAN_ANOMALY":"283.1326","COUNTRY_CODE":"US","REF_FRAME":"TEME","ELEMENT_SET_NO":"999","NORAD_CAT_ID":"45546","RA_OF_ASC_NODE":"34.8307","MEAN_MOTION_DOT":"-0.00001612","FILE":"3398537","PERIOD":"95.594","OBJECT_TYPE":"PAYLOAD","DECAY_DATE":null,"TLE_LINE1":"1 45546U 20025R   22102.20702696 -.00001612  00000-0 -89393-4 0  9990","PERIAPSIS":"546.260","OBJECT_ID":"2020-025R","CLASSIFICATION_TYPE":"U","CENTER_NAME":"EARTH","ECCENTRICITY":"0.00014720","TIME_SYSTEM":"UTC","MEAN_MOTION_DDOT":"0.0000000000000","APOAPSIS":"548.299","REV_AT_EPOCH":"10993","SEMIMAJOR_AXIS":"6925.414","EPHEMERIS_TYPE":"0","SITE":"AFETR","MEAN_ELEMENT_THEORY":"SGP4"},{"ARG_OF_PERICENTER":"75.9245","MEAN_MOTION":"15.06387306","EPOCH":"2022-04-12T19:12:39.949632","OBJECT_NAME":"STARLINK-1377","LAUNCH_DATE":"2020-04-22","TLE_LINE2":"2 45547  53.0577  32.1644 0001445  75.9245 284.1905 15.06387306110033","RCS_SIZE":"LARGE","GP_ID":"201091851","MEAN_ANOMALY":"284.1905","INCLINATION":"53.0577","BSTAR":"0.00002506800000","COUNTRY_CODE":"US","NORAD_CAT_ID":"45547","ELEMENT_SET_NO":"999","REF_FRAME":"TEME","MEAN_MOTION_DOT":"0.00000092","RA_OF_ASC_NODE":"32.1644","FILE":"3398892","OBJECT_TYPE":"PAYLOAD","PERIOD":"95.593","PERIAPSIS":"546.252","TLE_LINE1":"1 45547U 20025S   22102.80046238  .00000092  00000-0  25068-4 0  9998","DECAY_DATE":null,"OBJECT_ID":"2020-025S","CLASSIFICATION_TYPE":"U","TIME_SYSTEM":"UTC","ECCENTRICITY":"0.00014450","CENTER_NAME":"EARTH","MEAN_MOTION_DDOT":"0.0000000000000","EPHEMERIS_TYPE":"0","SITE":"AFETR","MEAN_ELEMENT_THEORY":"SGP4","SEMIMAJOR_AXIS":"6925.387","REV_AT_EPOCH":"11003","APOAPSIS":"548.253"},{"RCS_SIZE":"LARGE","GP_ID":"201064079","OBJECT_NAME":"STARLINK-1378","LAUNCH_DATE":"2020-04-22","TLE_LINE2":"2 45548  53.0577  32.0671 0001616  65.6928 294.4230 15.06393559109442","EPOCH":"2022-04-12T19:49:47.955936","ARG_OF_PERICENTER":"65.6928","MEAN_MOTION":"15.06393559","MEAN_MOTION_DOT":"-0.00000199","RA_OF_ASC_NODE":"32.0671","ELEMENT_SET_NO":"999","NORAD_CAT_ID":"45548","REF_FRAME":"TEME","COUNTRY_CODE":"US","INCLINATION":"53.0577","MEAN_ANOMALY":"294.4230","BSTAR":"0.00000551150000","DECAY_DATE":null,"TLE_LINE1":"1 45548U 20025T   22102.82624949 -.00000199  00000-0  55115-5 0  9998","PERIAPSIS":"546.114","OBJECT_ID":"2020-025T","OBJECT_TYPE":"PAYLOAD","PERIOD":"95.593","FILE":"3398580","SITE":"AFETR","MEAN_ELEMENT_THEORY":"SGP4","EPHEMERIS_TYPE":"0","APOAPSIS":"548.352","SEMIMAJOR_AXIS":"6925.368","REV_AT_EPOCH":"10944","MEAN_MOTION_DDOT":"0.0000000000000","TIME_SYSTEM":"UTC","CENTER_NAME":"EARTH","ECCENTRICITY":"0.00016160","CLASSIFICATION_TYPE":"U"},{"RA_OF_ASC_NODE":"31.9891","MEAN_MOTION_DOT":"-0.00002604","REF_FRAME":"TEME","ELEMENT_SET_NO":"999","NORAD_CAT_ID":"45550","COUNTRY_CODE":"US","BSTAR":"-0.00015611000000","INCLINATION":"53.0574","MEAN_ANOMALY":"284.5989","GP_ID":"201090349","RCS_SIZE":"LARGE","TLE_LINE2":"2 45550  53.0574  31.9891 0000984  75.5109 284.5989 15.06378169110029","OBJECT_NAME":"STARLINK-1390","LAUNCH_DATE":"2020-04-22","EPOCH":"2022-04-12T20:15:00.064800","MEAN_MOTION":"15.06378169","ARG_OF_PERICENTER":"75.5109","APOAPSIS":"547.962","SEMIMAJOR_AXIS":"6925.415","REV_AT_EPOCH":"11002","SITE":"AFETR","EPHEMERIS_TYPE":"0","MEAN_ELEMENT_THEORY":"SGP4","MEAN_MOTION_DDOT":"0.0000000000000","CENTER_NAME":"EARTH","ECCENTRICITY":"0.00009840","TIME_SYSTEM":"UTC","CLASSIFICATION_TYPE":"U","DECAY_DATE":null,"TLE_LINE1":"1 45550U 20025V   22102.84375075 -.00002604  00000-0 -15611-3 0  9995","PERIAPSIS":"546.599","OBJECT_ID":"2020-025V","PERIOD":"95.594","OBJECT_TYPE":"PAYLOAD","FILE":"3398892"},{"TIME_SYSTEM":"UTC","CENTER_NAME":"EARTH","ECCENTRICITY":"0.00014610","CLASSIFICATION_TYPE":"U","SITE":"AFETR","MEAN_ELEMENT_THEORY":"SGP4","EPHEMERIS_TYPE":"0","APOAPSIS":"548.269","SEMIMAJOR_AXIS":"6925.392","REV_AT_EPOCH":"11032","MEAN_MOTION_DDOT":"0.0000000000000","OBJECT_TYPE":"PAYLOAD","PERIOD":"95.593","FILE":"3398892","TLE_LINE1":"1 45551U 20025W   22102.91286903  .00000557  00000-0  56276-4 0  9991","OBJECT_ID":"2020-025W","DECAY_DATE":null,"PERIAPSIS":"546.245","COUNTRY_CODE":"US","INCLINATION":"53.0556","MEAN_ANOMALY":"292.5872","BSTAR":"0.00005627600000","MEAN_MOTION_DOT":"0.00000557","RA_OF_ASC_NODE":"11.6631","NORAD_CAT_ID":"45551","ELEMENT_SET_NO":"999","REF_FRAME":"TEME","EPOCH":"2022-04-12T21:54:31.884192","ARG_OF_PERICENTER":"67.5271","MEAN_MOTION":"15.06385831","RCS_SIZE":"LARGE","GP_ID":"201091601","OBJECT_NAME":"STARLINK-1294","LAUNCH_DATE":"2020-04-22","TLE_LINE2":"2 45551  53.0556  11.6631 0001461  67.5271 292.5872 15.06385831110326"}];
